162P/Siding Spring,e,27.5594,30.9435,357.1035,3.091302,0.1813393,0.58304747,307.8127,02/24.0/2020,2000,g  9.0,4.0
# From MPC102101
163P/NEAT,e,12.7079,102.0915,349.6848,3.770551,0.1346161,0.45192849,27.3003,02/24.0/2020,2000,g 14.5,4.0
# From MPC106349
164P/Christensen,e,16.2533,88.3055,325.8741,3.658801,0.1408302,0.53962663,89.2444,02/24.0/2020,2000,g 11.0,4.0
# From MPC 75721
165P/LINEAR,e,15.9002,0.7275,126.2699,17.90754,0.0130062,0.61487521,93.8712,02/24.0/2020,2000,g 11.5,2.0
# From MPC 75722
166P/NEAT,e,15.3603,64.5125,321.4819,13.83715,0.0191485,0.38167150,124.5665,02/24.0/2020,2000,g  5.5,4.0
# From MPC 75722
167P/CINEOS,e,19.1205,295.6588,344.0761,16.18028,0.0151435,0.27313476,104.0510,02/24.0/2020,2000,g  9.5,2.0
# From MPC102101
168P/Hergenrother,e,21.6116,355.4674,14.9920,3.581907,0.1453893,0.62063521,29.4909,02/24.0/2020,2000,g 15.5,4.0
# From MPEC 2015-M77
169P/NEAT,e,11.2950,176.0863,218.0755,2.601504,0.2348915,0.76793345,156.3301,02/24.0/2020,2000,g  9.0,4.0
# From MPC 89012
170P/Christensen,e,10.1249,142.9190,225.6638,4.198102,0.1145842,0.30332501,227.8777,02/24.0/2020,2000,g 12.0,4.0
# From MPC102102
171P/Spahr,e,21.9338,101.6962,347.1259,3.556912,0.1469246,0.50174552,59.7044,02/24.0/2020,2000,g 13.5,4.0
# From MPEC 2019-VB6
172P/Yeung,e,11.2341,30.8963,209.3480,4.209962,0.1141003,0.20627709,122.9064,02/24.0/2020,2000,g 13.0,4.0
# From MPEC 2019-VB6
173P/Mueller,e,16.4972,100.4011,29.3881,5.700053,0.0724245,0.26052464,311.9602,02/24.0/2020,2000,g  7.5,4.0
# From MPC 92985
174P/Echeclus,e,4.3431,173.2739,162.8864,10.70026,0.0281587,0.45691829,49.7915,02/24.0/2020,2000,g  9.4,2.0
# From MPC114608
175P/Hergenrother,e,6.0773,123.5313,56.2075,3.427662,0.1553127,0.43215679,22.7028,02/24.0/2020,2000,g 14.0,4.0
# From MPC 89015
176P/LINEAR,e,0.2347,345.8796,35.1734,3.193171,0.1727312,0.19293584,186.5251,02/24.0/2020,2000,g 15.1,2.0
# From MPC 75723
177P/Barnard,e,31.3370,272.3577,60.1632,24.37203,0.0081916,0.95502813,40.3612,02/24.0/2020,2000,g 15.0,4.0
# From MPC105242
178P/Hug-Bell,e,11.0897,102.8748,297.7801,3.630152,0.1425007,0.48175526,339.5369,02/24.0/2020,2000,g 13.5,4.0
# From MPC 75723
179P/Jedicke,e,19.8983,115.5247,296.4349,5.944643,0.0680010,0.30603065,304.0189,02/24.0/2020,2000,g  2.5,8.0
# From MPC100284
180P/NEAT,e,16.8684,84.5560,94.9066,3.860689,0.1299292,0.35348102,199.5732,02/24.0/2020,2000,g 11.0,4.0
# From MPC 89012
181P/Shoemaker-Levy,e,17.4853,35.4114,336.2599,3.870501,0.1294355,0.70030849,271.3407,02/24.0/2020,2000,g 11.5,4.0
# From MPEC 2014-J10
182P/LONEOS,e,16.2401,72.7564,53.7899,2.956981,0.1938346,0.66120411,203.1236,02/24.0/2020,2000,g 18.0,4.0
# From MPC110085
183P/Korlevic-Juric,e,18.6787,5.4883,163.3569,4.514506,0.1027516,0.13987679,84.4456,02/24.0/2020,2000,g 12.5,2.0
# From MPC105242
184P/Lovas,e,4.5722,173.2886,186.4166,3.795431,0.1332946,0.55136056,327.3202,02/24.0/2020,2000,g 13.5,4.0
# From MPC109593
185P/Petriew,e,13.9962,214.0965,181.8911,3.099765,0.1805972,0.69883176,136.7993,02/24.0/2020,2000,g 15.0,4.0
# From MPC100284
186P/Garradd,e,28.4664,326.8798,283.9981,5.012861,0.0878164,0.12437573,25.8813,02/24.0/2020,2000,g  7.5,4.0
# From MPC104795
187P/LINEAR,e,13.6347,109.9236,132.3341,4.575559,0.1007020,0.15260737,65.0297,02/24.0/2020,2000,g  9.0,4.0
# From MPC106349
188P/LINEAR-Mueller,e,10.5178,358.9561,26.6098,4.377056,0.1076294,0.41502494,118.6330,02/24.0/2020,2000,g 11.5,4.0
# From MPC106349
189P/NEAT,e,20.0738,281.7408,16.2462,2.947420,0.1947785,0.58865555,181.4628,02/24.0/2020,2000,g 19.0,4.0
# From MPC 75724
190P/Mueller,e,2.1738,335.5683,50.2992,4.236389,0.1130343,0.52059508,160.2479,02/24.0/2020,2000,g 13.0,4.0
# From MPC 92277
191P/McNaught,e,8.8453,98.2426,283.8690,3.642186,0.1417950,0.38714632,304.7660,02/24.0/2020,2000,g 13.0,4.0
# From MPC 75724
192P/Shoemaker-Levy,e,24.5288,51.6504,312.8925,6.478876,0.0597661,0.77262166,267.2243,02/24.0/2020,2000,g 15.0,4.0
# From MPC 92277
193P/LINEAR-NEAT,e,10.6869,335.1934,8.2736,3.574998,0.1458110,0.39396771,279.9748,02/24.0/2020,2000,g 14.0,4.0
# From MPC 98566
194P/LINEAR,e,11.1638,351.6807,130.7054,3.987760,0.1237686,0.57718081,179.9527,02/24.0/2020,2000,g 16.0,4.0
# From MPC 75724
195P/Hill,e,36.3418,243.0954,249.5187,6.496921,0.0595172,0.31337039,241.9623,02/24.0/2020,2000,g  8.5,4.0
# From MPC 92985
196P/Tichy,e,19.3051,24.2153,12.3453,3.796862,0.1332192,0.42874484,229.5256,02/24.0/2020,2000,g 13.5,4.0
# From MPC 94676
197P/LINEAR,e,25.5511,66.3947,188.7291,2.867150,0.2030151,0.62996655,153.5042,02/24.0/2020,2000,g 16.5,2.0
# From NK 1596
198P/ODAS,e,1.3384,358.2493,69.2793,3.601149,0.1442256,0.44311758,63.0516,02/24.0/2020,2000,g  9.0,4.0
# From MPC 75725
199P/Shoemaker,e,24.9357,92.4002,191.5471,5.899722,0.0687791,0.50601281,273.3052,02/24.0/2020,2000,g 10.0,4.0
# From MPC118098
200P/Larsen,e,12.1049,234.8037,133.9982,4.936322,0.0898667,0.33203413,18.9049,02/24.0/2020,2000,g  9.0,4.0
# From MPC 93588
201P/LONEOS,e,5.7414,20.3151,40.8548,3.364183,0.1597293,0.63832681,287.0083,02/24.0/2020,2000,g 14.0,4.0
# From MPC103849
202P/Scotti,e,2.0256,184.1313,272.8436,3.963419,0.1249105,0.29458967,170.4301,02/24.0/2020,2000,g 13.5,4.0
# From MPEC 2019-TG9
203P/Korlevic,e,2.9733,290.3493,154.8800,4.671029,0.0976304,0.31497327,359.0181,02/24.0/2020,2000,g 14.5,2.0
# From MPC 98566
204P/LINEAR-NEAT,e,6.6353,108.8349,354.8495,3.633404,0.1423094,0.47984637,217.6795,02/24.0/2020,2000,g 14.0,4.0
# From MPC 98566
205P/Giacobini,e,15.2991,179.5986,154.1783,3.543227,0.1477766,0.56771278,258.0977,02/24.0/2020,2000,g 13.0,4.0
# From MPC 75725
206P/Barnard-Boattini,e,33.6347,202.3943,189.4237,3.488296,0.1512809,0.55147251,303.3510,02/24.0/2020,2000,g 19.0,4.0
# From MPC 75725
207P/NEAT,e,10.1488,199.8952,271.6962,3.865576,0.1296829,0.75990088,172.9518,02/24.0/2020,2000,g 16.0,4.0
# From MPC101100
208P/McMillan,e,4.4086,36.3739,310.3815,4.047871,0.1210219,0.37308310,161.1645,02/24.0/2020,2000,g 12.5,4.0
# From MPC 90771
209P/LINEAR,e,21.2580,62.7679,152.4873,2.960634,0.1934760,0.67326836,49.5698,02/24.0/2020,2000,g 17.0,2.0
# From MPC105242
210P/Christensen,e,10.2619,93.8356,345.9093,3.166025,0.1749575,0.83323119,352.3153,02/24.0/2020,2000,g 13.5,4.0
# From MPC 96868
211P/Hill,e,18.9206,117.1371,4.1246,3.549649,0.1473757,0.34212434,219.3446,02/24.0/2020,2000,g 12.5,4.0
# From MPC104795
212P/NEAT,e,22.6671,98.7049,14.4301,3.886535,0.1286353,0.58756044,162.1444,02/24.0/2020,2000,g 17.0,2.0
# From MPC114608
213P/Van Ness,e,10.3814,311.3009,5.5951,3.348413,0.1608591,0.40798584,141.9148,02/24.0/2020,2000,g 10.5,4.0
# From MPC 92986
214P/LINEAR,e,15.1878,348.2657,190.2932,3.615542,0.1433653,0.48611077,224.4767,02/24.0/2020,2000,g 13.0,4.0
# From MPC118098
215P/NEAT,e,10.5813,56.6871,262.0505,4.328538,0.1094441,0.16721186,10.7101,02/24.0/2020,2000,g 11.0,4.0
# From MPC100284
216P/LINEAR,e,9.0501,359.8235,151.3858,3.870413,0.1294399,0.44542353,176.7002,02/24.0/2020,2000,g 13.0,4.0
# From MPC108598
217P/LINEAR,e,12.8632,125.4710,246.8618,3.952277,0.1254391,0.68809014,119.4543,02/24.0/2020,2000,g 12.0,4.0
# From MPC105242
218P/LINEAR,e,2.7253,175.9783,59.7711,3.094680,0.1810425,0.62192905,319.6702,02/24.0/2020,2000,g 16.0,4.0
# From MPC100284
219P/LINEAR,e,11.5290,231.0057,107.3487,3.651451,0.1412557,0.35335422,155.0846,02/24.0/2020,2000,g 11.0,4.0
# From MPC105242
220P/McNaught,e,8.1280,150.1118,180.5668,3.115054,0.1792692,0.50178089,307.8858,02/24.0/2020,2000,g 15.0,4.0
# From MPC 93589
221P/LINEAR,e,11.4263,229.7301,40.0186,3.458286,0.1532543,0.49281069,258.4078,02/24.0/2020,2000,g 14.5,4.0
# From MPC 92277
222P/LINEAR,e,5.0943,6.8040,346.2253,2.899419,0.1996355,0.71433165,52.6912,02/24.0/2020,2000,g 20.0,4.0
# From MPEC 2019-VB6
223P/Skiff,e,27.0145,346.7799,37.8281,4.159284,0.1161920,0.41560985,45.6314,02/24.0/2020,2000,g 12.0,4.0
# From MPC 75727
224P/LINEAR-NEAT,e,13.3376,40.3979,16.8247,3.435006,0.1548149,0.40923301,213.1616,02/24.0/2020,2000,g 15.5,4.0
# From MPC 75727
225P/LINEAR,e,21.3445,14.1821,3.8730,3.651380,0.1412598,0.63747106,181.7331,02/24.0/2020,2000,g 18.0,4.0
# From MPC106349
226P/Pigott-LINEAR-Kowalski,e,44.0053,54.0059,341.0653,3.768076,0.1347487,0.52811984,170.8659,02/24.0/2020,2000,g 12.5,4.0
# From MPC102956
227P/Catalina-LINEAR,e,6.5120,49.5706,90.0546,3.573350,0.1459119,0.50463663,142.3756,02/24.0/2020,2000,g 16.5,2.0
# From MPEC 2017-X08
228P/LINEAR,e,7.9095,30.9895,115.3036,4.174562,0.1155547,0.17695562,358.1838,02/24.0/2020,2000,g 14.5,2.0
# From MPC106349
229P/Gibbs,e,26.0821,157.8959,224.0010,3.932084,0.1264067,0.37633161,127.6022,02/24.0/2020,2000,g 13.0,4.0
# From MPC110497
230P/LINEAR,e,15.5122,107.0267,313.8430,3.441390,0.1543843,0.55089654,243.9099,02/24.0/2020,2000,g 13.0,4.0
# From MPC114608
231P/LINEAR-NEAT,e,12.3341,133.0275,42.8035,4.017303,0.1224058,0.24757066,31.1536,02/24.0/2020,2000,g 14.5,2.0
# From MPC112394
232P/Hill,e,14.6305,56.0236,53.5114,4.483686,0.1038129,0.33440939,33.5964,02/24.0/2020,2000,g 11.5,4.0
# From MPC 92986
233P/La Sagra,e,11.2842,74.9268,27.0760,3.030097,0.1868613,0.41171226,318.7580,02/24.0/2020,2000,g 15.0,4.0
# From MPC110497
234P/LINEAR,e,11.5222,179.5740,357.4326,3.803810,0.1328544,0.25395582,132.9079,02/24.0/2020,2000,g 12.0,4.0
# From MPC110497
235P/LINEAR,e,8.8822,204.0527,333.5999,3.988436,0.1237372,0.31879066,87.7464,02/24.0/2020,2000,g 12.0,4.0
# From MPC107688
236P/LINEAR,e,16.3337,245.6608,119.2026,3.731748,0.1367211,0.50827146,112.8922,02/24.0/2020,2000,g 14.0,4.0
# From MPC109593
237P/LINEAR,e,14.0223,245.4188,25.1578,3.512437,0.1497240,0.43474926,184.1009,02/24.0/2020,2000,g 14.5,2.0
# From MPC107688
238P/Read,e,1.2645,51.6430,324.7315,3.163079,0.1752020,0.25234000,213.8484,02/24.0/2020,2000,g 14.5,4.0
# From MPC112394
239P/LINEAR,e,11.3047,255.9105,220.4143,4.470744,0.1042640,0.63083269,42.7323,02/24.0/2020,2000,g 17.5,2.0
# From MPC109593
240P/NEAT,e,23.5047,74.9241,352.0258,3.869000,0.1295108,0.44869638,84.0986,02/24.0/2020,2000,g 11.0,4.0
# From MPC 75729
